EOS-4                   
1 51656U 22013A   22074.45600234  .00003539  00000+0  20522-3 0  9993
2 51656  97.5537  83.2680 0013417 145.0956 357.6392 15.12750333  4441
INSPIRESAT-1            
1 51657U 22013B   22073.96000530  .00004045  00000+0  23165-3 0  9991
2 51657  97.5607  82.8252 0012340 150.7859 209.4064 15.13133971  4375
INS-2TD                 
1 51658U 22013C   22074.02254501  .00005754  00000+0  32583-3 0  9991
2 51658  97.5595  82.8897 0011911 152.5257 207.6606 15.13360665  4387
PSLV R/B                
1 51659U 22013D   22074.57141083  .00003618  00000+0  19129-3 0  9990
2 51659  97.5730  83.6338 0031933 233.7297 126.1001 15.15697124  4479
PROGRESS-MS 19          
1 51660U 22014A   22074.51651072  .00008005  00000+0  15109-3 0  9990
2 51660  51.6426  80.4938 0004090 268.8721 229.5822 15.49420861330650
CYGNUS NG-17            
1 51712U 22015A   22074.51651072  .00008005  00000+0  15109-3 0  9999
2 51712  51.6426  80.4938 0004090 268.8721 229.5822 15.49420861330658
STARLINK-3528           
1 51714U 22016A   22074.00001157 -.00460620  00000+0 -34222-2 0  9992
2 51714  53.2175  33.6663 0001553  63.1590  34.6872 15.73457462  3690
STARLINK-3533           
1 51715U 22016B   22074.00001157 -.00112681  00000+0 -80475-3 0  9996
2 51715  53.2175  33.6661 0001059  64.0497  35.7526 15.73329805  3693
STARLINK-3543           
1 51716U 22016C   22074.00001157 -.00112291  00000+0 -80225-3 0  9997
2 51716  53.2177  33.6650 0001014  83.1852  15.3272 15.73320193  3695
STARLINK-3445           
1 51717U 22016D   22074.00001157 -.00107225  00000+0 -76582-3 0  9990
2 51717  53.2175  33.6663 0000975  75.9150  23.2313 15.73307404  3697
STARLINK-3546           
1 51718U 22016E   22074.00001157 -.00719605  00000+0 -57695-2 0  9995
2 51718  53.2173  33.6451 0001320  48.4379  52.0525 15.72409205  3690
STARLINK-3540           
1 51719U 22016F   22074.00001157 -.00038119  00000+0 -26828-3 0  9995
2 51719  53.2176  33.6633 0001200  77.2989  22.9194 15.73211506  3694
STARLINK-3526           
1 51720U 22016G   22074.00001157 -.00719650  00000+0 -57385-2 0  9994
2 51720  53.2174  33.6449 0001252  54.3897  46.9601 15.72537021  3691
STARLINK-3524           
1 51721U 22016H   22074.00001157 -.00122077  00000+0 -87355-3 0  9997
2 51721  53.2178  33.6618 0001077  68.5262  32.5531 15.73320464  3697
STARLINK-3535           
1 51722U 22016J   22074.00001157 -.00719675  00000+0 -56771-2 0  9991
2 51722  53.2174  33.6429 0001253  54.1854  49.4020 15.72788457  3697
STARLINK-3531           
1 51723U 22016K   22074.00001157 -.00149205  00000+0 -93990-3 0  9993
2 51723  53.2212  33.1930 0007839 282.3402  51.0473 15.76281661  3693
STARLINK-3529           
1 51724U 22016L   22074.00001157 -.00739784  00000+0 -57817-2 0  9998
2 51724  53.2174  33.6422 0001307  66.3012  38.7288 15.73060434  3699
STARLINK-3522           
1 51725U 22016M   22074.00001157 -.00719739  00000+0 -57090-2 0  9990
2 51725  53.2173  33.6432 0001195  59.4715  43.3320 15.72660698  3694
STARLINK-3527           
1 51726U 22016N   22074.00001157 -.00089381  00000+0 -63642-3 0  9995
2 51726  53.2183  33.6521 0001192  89.3209  17.4854 15.73301981  3694
STARLINK-3532           
1 51727U 22016P   22074.00001157 -.00720529  00000+0 -56532-2 0  9991
2 51727  53.2174  33.6422 0001196  62.4464  41.8860 15.72916963  3693
STARLINK-3448           
1 51728U 22016Q   22074.00001157 -.00154637  00000+0 -11119-2 0  9995
2 51728  53.2184  33.6496 0001264  86.9416  21.1374 15.73321993  3695
STARLINK-3523           
1 51729U 22016R   22074.00001157  .00724433  00000+0  48262-2 0  9990
2 51729  53.2173  33.6435 0001132  74.8411  31.1300 15.72745710  3698
STARLINK-3530           
1 51730U 22016S   22074.00001157 -.00150786  00000+0 -10829-2 0  9996
2 51730  53.2183  33.6471 0001271  90.6693  18.6801 15.73337166  3681
STARLINK-3514           
1 51731U 22016T   22074.00001157  .00807869  00000+0  53379-2 0  9993
2 51731  53.2173  33.6414 0001271  85.5229  21.7504 15.72698720  3697
STARLINK-3518           
1 51732U 22016U   22074.08334491 -.00216896  00000+0 -15711-2 0  9996
2 51732  53.2184  33.2345 0001165  87.9286 134.3331 15.73348561  3673
STARLINK-3525           
1 51733U 22016V   22074.08334491 -.00228593  00000+0 -16581-2 0  9990
2 51733  53.2179  33.2357 0000912  75.1773 145.7971 15.73352995  3672
STARLINK-3450           
1 51734U 22016W   22074.00001157  .00815350  00000+0  53832-2 0  9994
2 51734  53.2174  33.6328 0001236  80.6308  31.1121 15.72694970  3682
STARLINK-3517           
1 51735U 22016X   22074.00001157 -.00091428  00000+0 -65123-3 0  9996
2 51735  53.2182  33.6442 0001046 100.8559   9.7914 15.73303281  3685
STARLINK-3447           
1 51736U 22016Y   22074.08334491 -.00208761  00000+0 -15114-2 0  9999
2 51736  53.2184  33.2283 0001330  81.6826 143.7599 15.73334963  3685
STARLINK-3509           
1 51737U 22016Z   22074.08334491 -.00166905  00000+0 -12029-2 0  9995
2 51737  53.2181  33.2310 0001237  91.3444 132.1833 15.73308588  3670
STARLINK-3515           
1 51738U 22016AA  22074.08334491 -.00167726  00000+0 -12090-2 0  9996
2 51738  53.2185  33.2261 0001151  88.3305 138.3972 15.73308121  3683
STARLINK-3516           
1 51739U 22016AB  22074.08334491  .00030753  00000+0  22297-3 0  9995
2 51739  53.2183  33.2274 0001206  76.6755 147.9434 15.73174547  3688
STARLINK-3500           
1 51740U 22016AC  22074.08334491 -.00187161  00000+0 -13518-2 0  9990
2 51740  53.2184  33.2221 0000865  86.1506 142.4534 15.73324615  3687
STARLINK-3520           
1 51741U 22016AD  22074.08334491  .00010868  00000+0  81816-4 0  9996
2 51741  53.2182  33.2249 0001245  86.3602 139.4862 15.73181756  3685
STARLINK-3521           
1 51742U 22016AE  22074.08334491 -.00199205  00000+0 -14403-2 0  9998
2 51742  53.2185  33.2211 0001050  85.7412 143.5241 15.73337359  3683
STARLINK-3512           
1 51743U 22016AF  22074.08334491 -.00128256  00000+0 -91938-3 0  9996
2 51743  53.2181  33.2241 0001217  97.5831 129.6352 15.73301763  3682
STARLINK-3452           
1 51744U 22016AG  22074.08334491  .00008266  00000+0  63241-4 0  9990
2 51744  53.2185  33.2171 0001220 101.0527 129.2831 15.73203698  3682
STARLINK-3449           
1 51745U 22016AH  22074.08334491 -.00178937  00000+0 -12907-2 0  9997
2 51745  53.2183  33.2229 0001037  81.2013 146.8034 15.73328645  3680
STARLINK-3502           
1 51746U 22016AJ  22074.08334491  .00332232  00000+0  22981-2 0  9999
2 51746  53.2175  33.2053 0001072  63.8620 167.5808 15.73005941  3686
STARLINK-3446           
1 51747U 22016AK  22074.08334491  .00341249  00000+0  23583-2 0  9997
2 51747  53.2175  33.2088 0000936  92.7676 136.7631 15.73000603  3687
STARLINK-3501           
1 51748U 22016AL  22074.08334491 -.00210113  00000+0 -15220-2 0  9994
2 51748  53.2185  33.2137 0001024  68.7482 164.3241 15.73327804  3680
STARLINK-3451           
1 51749U 22016AM  22074.08334491 -.00206284  00000+0 -14895-2 0  9996
2 51749  53.2182  33.2169 0001203  64.5683 166.4131 15.73389645  3681
STARLINK-3505           
1 51750U 22016AN  22074.08334491 -.00190209  00000+0 -13750-2 0  9996
2 51750  53.2186  33.2115 0001200  91.4015 142.9626 15.73313164  3684
STARLINK-3506           
1 51751U 22016AP  22074.08334491  .00029508  00000+0  21408-3 0  9998
2 51751  53.2184  33.2123 0001423  79.7987 152.4557 15.73182933  3683
STARLINK-3511           
1 51752U 22016AQ  22074.08334491  .00028654  00000+0  20805-3 0  9990
2 51752  53.2188  33.2103 0001262  73.9746 160.8451 15.73180969  3689
STARLINK-3507           
1 51753U 22016AR  22074.08334491 -.00007283  00000+0 -47495-4 0  9993
2 51753  53.2174  33.2002 0001540  65.8110 167.4496 15.73209281  3688
STARLINK-3457           
1 51754U 22016AS  22074.08334491 -.00199901  00000+0 -14472-2 0  9990
2 51754  53.2185  33.2075 0001070  75.4226 160.8457 15.73309495  3686
STARLINK-3460           
1 51755U 22016AT  22074.08334491 -.00198850  00000+0 -14377-2 0  9997
2 51755  53.2184  33.2080 0001078  91.6701 143.9836 15.73336767  3683
STARLINK-3513           
1 51756U 22016AU  22074.08334491 -.00146710  00000+0 -10547-2 0  9991
2 51756  53.2188  33.2070 0001181  73.7776 163.1707 15.73299844  3680
STARLINK-3459           
1 51757U 22016AV  22074.08334491 -.00199768  00000+0 -14448-2 0  9997
2 51757  53.2183  33.2046 0001283  81.0158 156.5472 15.73331346  3687
STARLINK-3458           
1 51758U 22016AW  22074.08334491 -.00158882  00000+0 -11433-2 0  9991
2 51758  53.2187  33.2042 0001308  65.3360 172.8993 15.73318094  3679
STARLINK-3456           
1 51759U 22016AX  22074.08334491 -.00178409  00000+0 -12878-2 0  9993
2 51759  53.2183  33.2017 0001076  70.1031 168.7480 15.73310397  3683
FALCON 9 DEB            
1 51760U 22016AY  22073.95212412  .00153460  00000+0  65660-3 0  9994
2 51760  53.2307  32.8477 0005308 334.8865  25.1902 15.84190654  3538
FALCON 9 DEB            
1 51761U 22016AZ  22073.94531474  .00167997  00000+0  69018-3 0  9997
2 51761  53.2281  32.7967 0004282 301.7196  58.3411 15.85004116  3534
FALCON 9 DEB            
1 51762U 22016BA  22073.93153540  .00155142  00000+0  60898-3 0  9997
2 51762  53.2253  32.6953 0008704 311.8623  48.1659 15.85944512  3532
FALCON 9 DEB            
1 51763U 22016BB  22073.92849180  .00160695  00000+0  62668-3 0  9995
2 51763  53.2231  32.6708 0008488 292.6026  67.4102 15.86065307  3533
STARLINK-3622           
1 51768U 22017A   22074.08334491 -.00125243  00000+0 -89767-3 0  9994
2 51768  53.2181  57.3044 0001420  50.7089 108.8183 15.73293006  3253
STARLINK-3621           
1 51769U 22017B   22074.08334491  .00062219  00000+0  44505-3 0  9997
2 51769  53.2175  57.2931 0001688  61.5067  98.8443 15.73168272  3245
STARLINK-3612           
1 51770U 22017C   22074.08334491 -.00120023  00000+0 -86008-3 0  9993
2 51770  53.2182  57.3033 0001353  62.5639  97.5800 15.73278723  3240
